STARLINK-30703          
1 57954U 23148V   23337.08635495 -.00016209  00000+0 -75887-3 0  9993
2 57954  53.0503 249.7564 0001053 110.7974 249.3133 15.18675872 11909
STARLINK-30702          
1 57955U 23148W   23337.02527999 -.00009478  00000+0 -43721-3 0  9999
2 57955  53.0542 250.0817 0002049  56.3948 303.7242 15.18656691 11893
SKYKRAFT-3D             
1 57956U 23084BZ  23336.87192630  .00012200  00000+0  63496-3 0  9997
2 57956  97.5274  91.3892 0011193 342.9648  17.1207 15.16123682 12636
YAOGAN-33 04            
1 57958U 23149A   23337.12492587  .00001445  00000+0  31412-3 0  9996
2 57958  98.0806 288.7316 0001991  89.3265 270.8163 14.59458672  9811
NOOR-3                  
1 57962U 23150A   23337.09884989  .00033268  00000+0  72307-3 0  9996
2 57962  60.0126  92.6631 0017591   4.4081 355.7160 15.44003428 10271
STARLINK-30396          
1 57964U 23151A   23336.85783188  .00005038  00000+0  27568-3 0  9994
2 57964  43.0010 166.5279 0001527 269.7371  90.3301 15.15159185 11095
STARLINK-30524          
1 57965U 23151B   23336.83259068  .00013594  00000+0  70585-3 0  9991
2 57965  43.0032 166.3469 0001210 288.5078  71.5637 15.15985178 11093
STARLINK-30521          
1 57966U 23151C   23336.89391071  .00008415  00000+0  44186-3 0  9993
2 57966  43.0014 165.9440 0001665 278.9707  81.0952 15.15977615 11109
STARLINK-30528          
1 57967U 23151D   23336.03507297  .00054995  00000+0  27983-2 0  9998
2 57967  43.0012 170.6789 0002138 254.6802 105.3809 15.16047591 10977
STARLINK-30495          
1 57968U 23151E   23336.83485445  .00008909  00000+0  46697-3 0  9995
2 57968  43.0006 166.3581 0001509 267.9686  92.0989 15.15987793 11036
STARLINK-30484          
1 57969U 23151F   23336.83029732  .00008054  00000+0  42326-3 0  9995
2 57969  43.0012 166.3208 0001534 261.4214  98.6459 15.15992346 11094
STARLINK-30494          
1 57970U 23151G   23336.85975374  .00005439  00000+0  28988-3 0  9993
2 57970  43.0008 165.6808 0001683 269.5154  90.5500 15.15985736 11101
STARLINK-30498          
1 57971U 23151H   23336.85748039  .00005731  00000+0  30480-3 0  9995
2 57971  43.0008 165.6644 0001569 282.4695  77.5977 15.15981889 11105
STARLINK-30505          
1 57972U 23151J   23336.86886385  .00006919  00000+0  36543-3 0  9999
2 57972  43.0010 165.7481 0001590 256.8853 103.1816 15.15985904 11104
STARLINK-30502          
1 57973U 23151K   23336.81912949  .00002837  00000+0  16061-3 0  9999
2 57973  43.0013 166.2337 0001786 261.7979  98.2665 15.15153128 11094
STARLINK-30489          
1 57974U 23151L   23336.86204087  .00015397  00000+0  79813-3 0  9991
2 57974  43.0008 165.7004 0001971 287.7289  72.3343 15.15966960 11106
STARLINK-30503          
1 57975U 23151M   23336.83421353  .00006140  00000+0  32571-3 0  9992
2 57975  43.0006 164.6282 0001619 280.8647  79.2018 15.15982274 11114
STARLINK-30512          
1 57976U 23151N   23336.82924354  .00025609  00000+0  13150-2 0  9993
2 57976  43.0002 162.0143 0001787 267.3229  92.7414 15.16040144 11146
STARLINK-30509          
1 57977U 23151P   23336.89272724  .00005848  00000+0  44745-3 0  9996
2 57977  43.0012 170.1881 0001633 274.1434  85.9222 15.02552386 11053
STARLINK-30511          
1 57978U 23151Q   23336.88606857  .00003328  00000+0  26122-3 0  9994
2 57978  43.0012 170.1383 0001376 275.3423  84.7262 15.02551600 11055
STARLINK-30508          
1 57979U 23151R   23336.88273993  .00002288  00000+0  18434-3 0  9997
2 57979  43.0013 170.1131 0001533 272.0449  88.0218 15.02547743 11056
STARLINK-30504          
1 57980U 23151S   23336.88939701  .00003273  00000+0  25719-3 0  9994
2 57980  43.0012 170.1623 0001347 269.4276  90.6412 15.02549134 11055
STARLINK-30510          
1 57981U 23151T   23336.87940889  .00004704  00000+0  36290-3 0  9999
2 57981  43.0019 170.0890 0001461 277.5996  82.4680 15.02553255 11059
STARLINK-30507          
1 57982U 23151U   23337.00902114  .00013204  00000+0  98948-3 0  9998
2 57982  43.0014 169.3399 0001693 266.1121  93.9528 15.02582067 11052
STARLINK-30515          
1 57983U 23151V   23336.87274886  .00004472  00000+0  34578-3 0  9997
2 57983  43.0012 170.0388 0001530 278.1091  81.9578 15.02549534 10982
STARLINK-30516          
1 57984U 23151W   23336.86942237  .00002779  00000+0  22063-3 0  9993
2 57984  43.0022 170.0137 0001227 265.8362  94.2340 15.02546680 11055
STARLINK-30519          
1 57985U 23151X   23336.86608902  .00003700  00000+0  28870-3 0  9999
2 57985  43.0015 169.9880 0001277 262.8087  97.2610 15.02551555 10998
YAOGAN-39 03A           
1 57986U 23152A   23337.10305249  .00019279  00000+0  79908-3 0  9993
2 57986  34.9969 342.9799 0005726 103.1530 256.9824 15.23014179  9012
YAOGAN-39 03B           
1 57988U 23152C   23337.10194849  .00013089  00000+0  54607-3 0  9999
2 57988  34.9958 342.9683 0005200  82.7205 277.4101 15.22856288  9012
YAOGAN-39 03C           
1 57990U 23152E   23337.09963113  .00018545  00000+0  77246-3 0  9994
2 57990  34.9960 342.9478 0007416 122.2370 237.9064 15.22843613  8986
STARLINK-30537          
1 57991U 23153A   23337.16367759  .00072218  00000+0  36798-2 0  9991
2 57991  42.9995 252.1853 0001902 255.0663 104.9974 15.15879231 10003
STARLINK-30534          
1 57992U 23153B   23337.10916091  .00036855  00000+0  18897-2 0  9992
2 57992  42.9968 252.6371 0004184 235.8376 124.2075 15.15934914 10216
STARLINK-30536          
1 57993U 23153C   23337.11862655  .00031030  00000+0  16327-2 0  9996
2 57993  42.9985 252.7055 0003599 240.4181 119.6308 15.15095169 10319
STARLINK-30538          
1 57994U 23153D   23337.10231888  .00008770  00000+0  46012-3 0  9994
2 57994  42.9968 252.5827 0002288 240.5007 119.5612 15.15969071 10205
STARLINK-30517          
1 57995U 23153E   23337.10002766  .00029797  00000+0  15299-2 0  9990
2 57995  42.9977 252.5681 0001426 257.0926 102.9762 15.15978556 10312
STARLINK-30543          
1 57996U 23153F   23337.25001157 -.00430743  71294-4 -89676-3 0  9998
2 57996  42.9838 228.1591 0002181 275.7148  59.0262 15.98035244 10585
STARLINK-30523          
1 57997U 23153G   23337.11636357  .00027442  00000+0  14465-2 0  9991
2 57997  42.9973 252.6878 0001203 259.7781 100.2930 15.15086453 10314
STARLINK-30531          
1 57998U 23153H   23337.03905178 -.00019806  00000+0 -10306-2 0  9990
2 57998  42.9973 252.9657 0001432 263.5435  96.5249 15.15066477 10297
STARLINK-30552          
1 57999U 23153J   23337.10748451  .00023695  00000+0  12517-2 0  9993
2 57999  42.9974 252.6197 0001568 276.1345  83.9323 15.15074595 10311
STARLINK-30545          
1 58000U 23153K   23337.09095756  .00044423  00000+0  22718-2 0  9994
2 58000  42.9971 252.4979 0002182 263.9703  96.0895 15.15956997 10317
STARLINK-30535          
1 58001U 23153L   23337.02276204  .00002804  00000+0  15546-3 0  9996
2 58001  42.9960 252.8433 0001616 240.1742 119.8945 15.15938196 10306
STARLINK-30540          
1 58002U 23153M   23337.11812659  .00035104  00000+0  18004-2 0  9997
2 58002  42.9979 251.8433 0003544 243.3404 116.7080 15.15947404 10216
STARLINK-30546          
1 58003U 23153N   23336.95461125 -.00018077  00000+0 -91738-3 0  9995
2 58003  42.9964 253.1937 0001152 244.3184 115.7544 15.15896430 10298
STARLINK-30539          
1 58004U 23153P   23337.16001755  .00025446  00000+0  13437-2 0  9994
2 58004  42.9965 252.1545 0001524 254.1516 105.9163 15.15055658 10315
STARLINK-30530          
1 58005U 23153Q   23337.14319039  .00026779  00000+0  13786-2 0  9997
2 58005  42.9977 252.0279 0000430 112.6227 247.4665 15.15930817 10323
STARLINK-30526          
1 58006U 23153R   23337.25001157 -.00584060  00000+0 -88443-2 0  9995
2 58006  42.9990 235.9258 0001634 260.1501 225.8619 15.55824884 10506
STARLINK-30527          
1 58007U 23153S   23335.00001157  .00389225  00000+0  22617-2 0  9992
2 58007  42.9947 247.6469 0003417 228.0605 138.5094 15.76598201  5989
STARLINK-30522          
1 58008U 23153T   23337.15932399  .00178905  00000+0  97183-2 0  9993
2 58008  42.9982 252.1449 0002695 236.7838 123.2750 15.13014478 10312
STARLINK-30486          
1 58009U 23153U   23337.13635146  .00034524  00000+0  17712-2 0  9990
2 58009  42.9969 251.9774 0000923 273.3827  86.6915 15.15946648  9984
STARLINK-30520          
1 58010U 23153V   23337.12723208  .00027581  00000+0  14209-2 0  9991
2 58010  42.9980 251.9106 0001126 261.4303  98.6416 15.15893261 10210
STARLINK-30497          
1 58011U 23153W   23337.12495082  .00038164  00000+0  19551-2 0  9992
2 58011  42.9980 251.8937 0004904 237.3490 122.6885 15.15949723 10312
STARLINK-30525          
1 58012U 23153X   23337.11584814  .00030444  00000+0  15642-2 0  9994
2 58012  42.9979 251.8262 0003957 237.5250 122.5215 15.15940684 10318
KUIPER-P2               
1 58013U 23154A   23336.54577135  .00023338  00000+0  86912-3 0  9993
2 58013  29.9905  79.6266 0014711 179.8366 180.2264 15.26101466  8679
KUIPER-P1               
1 58014U 23154B   23336.35079793  .00037228  00000+0  13893-2 0  9990
2 58014  29.9902  80.9488 0014538 178.6304 181.4361 15.26056381  8647
THEOS-2 (T2V)           
1 58016U 23155A   23337.16180008  .00002041  00000+0  26641-3 0  9996
2 58016  97.9029  45.4656 0001299  98.6039 261.5321 14.81602070  8157
FORMOSAT-7R (TRITON)    
1 58017U 23155B   23337.12435263  .00003386  00000+0  36864-3 0  9990
2 58017  97.9227  46.1116 0002785 154.5466 205.5889 14.88696588  8188
ANSER-FLW2              
1 58018U 23155C   23337.13838845  .00005904  00000+0  48724-3 0  9991
2 58018  97.6631  45.0591 0008368 143.6384 216.5409 14.99346911  8242
ANSER-FLW1              
1 58019U 23155D   23337.13666014  .00005897  00000+0  48598-3 0  9999
2 58019  97.6628  45.0612 0008287 144.8266 215.3506 14.99398402  8242
NESS                    
1 58020U 23155E   23336.72476873  .00010328  00000+0  83675-3 0  9997
2 58020  97.6620  44.6871 0007833 156.9134 203.2443 14.99875238  8188
